NORAD_CAT_ID,OBJECT_NAME,OBJECT_TYPE,EPOCH,MEAN_MOTION,ECCENTRICITY,INCLINATION,RA_OF_ASC_NODE,ARG_OF_PERICENTER,MEAN_ANOMALY,BSTAR,MEAN_MOTION_DOT,MEAN_MOTION_DDOT,TLE_LINE0,TLE_LINE1,TLE_LINE2,SEMIMAJOR_AXIS,PERIOD,APOGEE,PERIGEE,DECAYED
55954.0,STARLINK-5892,PAYLOAD,2024-05-12 10:01:39,14.98315709,0.000291,69.9991,144.3039,263.0897,96.9931,5.4991e-05,5.63e-06,0.0,0 STARLINK-5892,1 55954U 23037AS  24133.41781434  .00000563  00000-0  54991-4 0  9994,2 55954  69.9991 144.3039 0002910 263.0897  96.9931 14.98315709 65010,6950.237,96.108,574.125,570.08,0.0
55954.0,STARLINK-5892,PAYLOAD,2024-05-13 10:03:40,14.98323163,0.0002979,69.9986,141.778,264.9431,95.1388,-0.00011125,-1.42e-05,0.0,0 STARLINK-5892,1 55954U 23037AS  24134.41921733 -.00001420  00000-0 -11125-3 0  9999,2 55954  69.9986 141.7780 0002979 264.9431  95.1388 14.98323163 65163,6950.214,96.107,574.15,570.009,0.0
55954.0,STARLINK-5892,PAYLOAD,2024-05-13 18:04:22,14.9827545,0.0002871,69.9984,140.936,319.0978,40.9965,0.00078938,9.325e-05,0.0,0 STARLINK-5892,1 55954U 23037AS  24134.75303400  .00009325  00000-0  78938-3 0  9996,2 55954  69.9984 140.9360 0002871 319.0978  40.9965 14.98275450 65215,6950.362,96.11,574.222,570.231,0.0
55954.0,STARLINK-5892,PAYLOAD,2024-05-14 05:17:17,14.98322881,0.0003104,69.9982,139.7578,265.7146,94.3658,4.0351e-05,3.88e-06,0.0,0 STARLINK-5892,1 55954U 23037AS  24135.22033598  .00000388  00000-0  40351-4 0  9996,2 55954  69.9982 139.7578 0003104 265.7146  94.3658 14.98322881 65284,6950.215,96.107,574.237,569.923,0.0
55954.0,STARLINK-5892,PAYLOAD,2024-05-14 10:05:41,14.98323918,0.0003094,69.9982,139.2528,265.6784,94.4022,4.9649e-05,4.99e-06,0.0,0 STARLINK-5892,1 55954U 23037AS  24135.42061594  .00000499  00000-0  49649-4 0  9997,2 55954  69.9982 139.2528 0003094 265.6784  94.4022 14.98323918 64972,6950.212,96.107,574.227,569.926,0.0
55954.0,STARLINK-5892,PAYLOAD,2024-05-14 18:06:21,14.98325747,0.0003112,69.9983,138.4113,265.9989,94.0814,8.4173e-05,9.11e-06,0.0,0 STARLINK-5892,1 55954U 23037AS  24135.75441498  .00000911  00000-0  84173-4 0  9998,2 55954  69.9983 138.4113 0003112 265.9989  94.0814 14.98325747 65029,6950.206,96.107,574.234,569.908,0.0
55954.0,STARLINK-5892,PAYLOAD,2024-05-15 05:19:17,14.98328286,0.0003126,69.9981,137.2329,265.9513,94.1289,0.00010777,1.193e-05,0.0,0 STARLINK-5892,1 55954U 23037AS  24136.22173347  .00001193  00000-0  10777-3 0  9997,2 55954  69.9981 137.2329 0003126 265.9513  94.1289 14.98328286 65434,6950.198,96.107,574.236,569.891,0.0
55954.0,STARLINK-5892,PAYLOAD,2024-05-15 10:07:41,14.98330563,0.0003106,69.9982,136.7279,265.8574,94.223,0.0001255,1.405e-05,0.0,0 STARLINK-5892,1 55954U 23037AS  24136.42201159  .00001405  00000-0  12550-3 0  9999,2 55954  69.9982 136.7279 0003106 265.8574  94.2230 14.98330563 65121,6950.191,96.107,574.215,569.897,0.0
55954.0,STARLINK-5892,PAYLOAD,2024-05-16 05:21:18,14.98333469,0.0003061,69.9983,134.708,266.0505,94.0304,6.0054e-05,6.24e-06,0.0,0 STARLINK-5892,1 55954U 23037AS  24137.22313041  .00000624  00000-0  60054-4 0  9997,2 55954  69.9983 134.7080 0003061 266.0505  94.0304 14.98333469 65585,6950.182,96.107,574.175,569.92,0.0
55954.0,STARLINK-5892,PAYLOAD,2024-05-16 10:09:42,14.98334637,0.0003061,69.9982,134.203,266.4646,93.6163,6.4011e-05,6.71e-06,0.0,0 STARLINK-5892,1 55954U 23037AS  24137.42340876  .00000671  00000-0  64011-4 0  9994,2 55954  69.9982 134.2030 0003061 266.4646  93.6163 14.98334637 65276,6950.179,96.107,574.171,569.916,0.0
55954.0,STARLINK-5892,PAYLOAD,2024-05-16 16:34:14,14.98336329,0.0003039,69.9982,133.5297,266.8975,93.1837,4.5591e-05,4.51e-06,0.0,0 STARLINK-5892,1 55954U 23037AS  24137.69044717  .00000451  00000-0  45591-4 0  9996,2 55954  69.9982 133.5297 0003039 266.8975  93.1837 14.98336329 65315,6950.173,96.107,574.15,569.926,0.0
55954.0,STARLINK-5892,PAYLOAD,2024-05-17 05:23:19,14.98336071,0.0002993,69.9984,132.1832,266.6312,93.4505,-1.5109e-05,-2.73e-06,0.0,0 STARLINK-5892,1 55954U 23037AS  24138.22452680 -.00000273  00000-0 -15109-4 0  9994,2 55954  69.9984 132.1832 0002993 266.6312  93.4505 14.98336071 65733,6950.174,96.107,574.119,569.959,0.0
55954.0,STARLINK-5892,PAYLOAD,2024-05-17 08:35:35,14.98336289,0.0002936,69.9985,131.8472,264.4105,95.6719,2.2204e-06,-6.7e-07,0.0,0 STARLINK-5892,1 55954U 23037AS  24138.35804555 -.00000067  00000-0  22204-5 0  9995,2 55954  69.9985 131.8472 0002936 264.4105  95.6719 14.98336289 65410,6950.173,96.107,574.079,569.998,0.0
55954.0,STARLINK-5892,PAYLOAD,2024-05-17 23:00:48,14.98329817,0.0002846,69.9987,130.332,268.8155,91.2678,-7.5144e-05,-9.89e-06,0.0,0 STARLINK-5892,1 55954U 23037AS  24138.95889059 -.00000989  00000-0 -75144-4 0  9997,2 55954  69.9987 130.3320 0002846 268.8155  91.2678 14.98329817 65506,6950.193,96.107,574.036,570.08,0.0
55954.0,STARLINK-5892,PAYLOAD,2024-05-18 05:25:20,14.98328933,0.0002862,69.9987,129.6587,268.2263,91.8568,-8.0006e-05,-1.047e-05,0.0,0 STARLINK-5892,1 55954U 23037AS  24139.22593113 -.00001047  00000-0 -80006-4 0  9990,2 55954  69.9987 129.6587 0002862 268.2263  91.8568 14.98328933 65887,6950.196,96.107,574.05,570.072,0.0
55954.0,STARLINK-5892,PAYLOAD,2024-05-18 10:13:44,14.98329899,0.0002848,69.9987,129.1536,269.057,91.0263,-6.3977e-05,-8.56e-06,0.0,0 STARLINK-5892,1 55954U 23037AS  24139.42621008 -.00000856  00000-0 -63977-4 0  9992,2 55954  69.9987 129.1536 0002848 269.0570  91.0263 14.98329899 65572,6950.193,96.107,574.038,570.079,0.0
55954.0,STARLINK-5892,PAYLOAD,2024-05-18 23:02:48,14.98331858,0.0002864,69.9987,127.807,269.2862,90.7969,-2.3012e-05,-3.68e-06,0.0,0 STARLINK-5892,1 55954U 23037AS  24139.96028739 -.00000368  00000-0 -23012-4 0  9997,2 55954  69.9987 127.8070 0002864 269.2862  90.7969 14.98331858 65650,6950.187,96.107,574.043,570.062,0.0
55954.0,STARLINK-5892,PAYLOAD,2024-05-19 05:27:21,14.98331241,0.0002879,69.9987,127.1337,269.0601,91.0228,-5.7192e-06,-1.61e-06,0.0,0 STARLINK-5892,1 55954U 23037AS  24140.22732684 -.00000161  00000-0 -57192-5 0  9997,2 55954  69.9987 127.1337 0002879 269.0601  91.0228 14.98331241 66035,6950.189,96.107,574.055,570.053,0.0
55954.0,STARLINK-5892,PAYLOAD,2024-05-19 08:39:37,14.98330073,0.0002898,69.9987,126.7971,268.8938,91.1889,-1.9394e-05,-3.24e-06,0.0,0 STARLINK-5892,1 55954U 23037AS  24140.36084789 -.00000324  00000-0 -19394-4 0  9990,2 55954  69.9987 126.7971 0002898 268.8938  91.1889 14.98330073 65715,6950.193,96.107,574.072,570.043,0.0
55954.0,STARLINK-5892,PAYLOAD,2024-05-20 08:41:38,14.98329825,0.0002991,69.9985,124.2715,268.7342,91.3475,5.356e-05,5.46e-06,0.0,0 STARLINK-5892,1 55954U 23037AS  24141.36224610  .00000546  00000-0  53560-4 0  9997,2 55954  69.9985 124.2715 0002991 268.7342  91.3475 14.98329825 66205,6950.193,96.107,574.137,569.98,0.0
55954.0,STARLINK-5892,PAYLOAD,2024-05-21 08:43:39,14.98329705,0.0002953,69.9988,121.7475,268.8232,91.2589,2.3423e-06,-6.5e-07,0.0,0 STARLINK-5892,1 55954U 23037AS  24142.36364770 -.00000065  00000-0  23423-5 0  9993,2 55954  69.9988 121.7475 0002953 268.8232  91.2589 14.98329705 66358,6950.194,96.107,574.111,570.006,0.0
55954.0,STARLINK-5892,PAYLOAD,2024-05-21 21:32:43,14.98331068,0.0002942,69.9989,120.4014,267.4636,92.6186,2.6543e-06,-6.1e-07,0.0,0 STARLINK-5892,1 55954U 23037AS  24142.89772646 -.00000061  00000-0  26543-5 0  9998,2 55954  69.9989 120.4014 0002942 267.4636  92.6186 14.98331068 66099,6950.19,96.107,574.099,570.01,0.0
55954.0,STARLINK-5892,PAYLOAD,2024-05-22 08:45:39,14.98333636,0.000287,69.999,119.2224,267.1699,92.9132,3.8818e-05,3.7e-06,0.0,0 STARLINK-5892,1 55954U 23037AS  24143.36504323  .00000370  00000-0  38818-4 0  9995,2 55954  69.9990 119.2224 0002870 267.1699  92.9132 14.98333636 66509,6950.182,96.107,574.041,570.052,0.0
55954.0,STARLINK-5892,PAYLOAD,2024-05-23 05:35:25,14.98326191,0.0002695,69.9993,117.0343,263.7189,96.3663,-2.1124e-06,-1.18e-06,0.0,0 STARLINK-5892,1 55954U 23037AS  24144.23292892 -.00000118  00000-0 -21124-5 0  9992,2 55954  69.9993 117.0343 0002695 263.7189  96.3663 14.98326191 66630,6950.205,96.107,573.943,570.197,0.0
55954.0,STARLINK-5892,PAYLOAD,2024-05-23 08:47:41,14.98327257,0.0002687,69.9994,116.6978,263.7023,96.383,8.6199e-06,1e-07,0.0,0 STARLINK-5892,1 55954U 23037AS  24144.36644812  .00000010  00000-0  86199-5 0  9991,2 55954  69.9994 116.6978 0002687 263.7023  96.3830 14.98327257 66313,6950.201,96.107,573.934,570.199,0.0
55954.0,STARLINK-5892,PAYLOAD,2024-05-23 21:36:45,14.98332057,0.0002691,69.9993,115.3508,263.3298,96.7554,-1.6842e-06,-1.13e-06,0.0,0 STARLINK-5892,1 55954U 23037AS  24144.90052514 -.00000113  00000-0 -16842-5 0  9997,2 55954  69.9993 115.3508 0002691 263.3298  96.7554 14.98332057 66391,6950.187,96.107,573.922,570.181,0.0
55954.0,STARLINK-5892,PAYLOAD,2024-05-24 04:01:17,14.98332655,0.0002699,69.9993,114.6777,261.507,98.5783,5.9312e-06,-2.2e-07,0.0,0 STARLINK-5892,1 55954U 23037AS  24145.16756390 -.00000022  00000-0  59312-5 0  9996,2 55954  69.9993 114.6777 0002699 261.5070  98.5783 14.98332655 66777,6950.185,96.107,573.926,570.174,0.0
55954.0,STARLINK-5892,PAYLOAD,2024-05-24 08:49:41,14.9833434,0.0002679,69.9994,114.1728,261.615,98.4705,2.4907e-05,2.04e-06,0.0,0 STARLINK-5892,1 55954U 23037AS  24145.36784179  .00000204  00000-0  24907-4 0  9996,2 55954  69.9994 114.1728 0002679 261.6150  98.4705 14.98334340 66469,6950.179,96.107,573.906,570.183,0.0
55954.0,STARLINK-5892,PAYLOAD,2024-05-24 21:38:46,14.98324622,0.0002587,69.9996,112.8264,257.01,103.0771,-9.5661e-06,-2.07e-06,0.0,0 STARLINK-5892,1 55954U 23037AS  24145.90192861 -.00000207  00000-0 -95661-5 0  9998,2 55954  69.9996 112.8264 0002587 257.0100 103.0771 14.98324622 66887,6950.21,96.107,573.873,570.277,0.0
55954.0,STARLINK-5892,PAYLOAD,2024-05-25 07:15:35,14.98322233,0.0002653,69.9996,111.8168,256.554,103.5324,-4.2769e-05,-6.03e-06,0.0,0 STARLINK-5892,1 55954U 23037AS  24146.30249236 -.00000603  00000-0 -42769-4 0  9992,2 55954  69.9996 111.8168 0002653 256.5540 103.5324 14.98322233 66600,6950.217,96.107,573.926,570.238,0.0
